CCSDS_OMM_VERS = 2.0
CREATION_DATE  = 
ORIGINATOR     = 

OBJECT_NAME    = STARLINK-36586
OBJECT_ID      = 2026-014S
CENTER_NAME    = EARTH
REF_FRAME      = TEME
TIME_SYSTEM    = UTC
MEAN_ELEMENT_THEORY = SGP/SGP4

EPOCH          = 2026-02-07T06:00:02.999808
MEAN_MOTION    = 15.80847630
ECCENTRICITY   = .00016454
INCLINATION    = 97.2852
RA_OF_ASC_NODE = 281.6530
ARG_OF_PERICENTER = 74.1625
MEAN_ANOMALY   = 150.3199

EPHEMERIS_TYPE = 0
CLASSIFICATION_TYPE = U
NORAD_CAT_ID   = 67548
ELEMENT_SET_NO = 999
REV_AT_EPOCH   = 379
BSTAR          = -.35339881E-3
MEAN_MOTION_DOT = -.67415E-3
MEAN_MOTION_DDOT = 0

CCSDS_OMM_VERS = 2.0
CREATION_DATE  = 
ORIGINATOR     = 

OBJECT_NAME    = STARLINK-36564
OBJECT_ID      = 2026-014T
CENTER_NAME    = EARTH
REF_FRAME      = TEME
TIME_SYSTEM    = UTC
MEAN_ELEMENT_THEORY = SGP/SGP4

EPOCH          = 2026-02-07T06:00:02.999808
MEAN_MOTION    = 15.80032834
ECCENTRICITY   = .00021936
INCLINATION    = 97.2847
RA_OF_ASC_NODE = 281.6558
ARG_OF_PERICENTER = 97.5564
MEAN_ANOMALY   = 133.4099

EPHEMERIS_TYPE = 0
CLASSIFICATION_TYPE = U
NORAD_CAT_ID   = 67549
ELEMENT_SET_NO = 999
REV_AT_EPOCH   = 373
BSTAR          = -.12274707E-1
MEAN_MOTION_DOT = -.1971961E-1
MEAN_MOTION_DDOT = 0

CCSDS_OMM_VERS = 2.0
CREATION_DATE  = 
ORIGINATOR     = 

OBJECT_NAME    = STARLINK-36563
OBJECT_ID      = 2026-014U
CENTER_NAME    = EARTH
REF_FRAME      = TEME
TIME_SYSTEM    = UTC
MEAN_ELEMENT_THEORY = SGP/SGP4

EPOCH          = 2026-02-07T06:00:02.999808
MEAN_MOTION    = 15.80901543
ECCENTRICITY   = .00016573
INCLINATION    = 97.2824
RA_OF_ASC_NODE = 281.6558
ARG_OF_PERICENTER = 101.4144
MEAN_ANOMALY   = 136.5629

EPHEMERIS_TYPE = 0
CLASSIFICATION_TYPE = U
NORAD_CAT_ID   = 67550
ELEMENT_SET_NO = 999
REV_AT_EPOCH   = 379
BSTAR          = -.60678555E-3
MEAN_MOTION_DOT = -.115305E-2
MEAN_MOTION_DDOT = 0

CCSDS_OMM_VERS = 2.0
CREATION_DATE  = 
ORIGINATOR     = 

OBJECT_NAME    = STARLINK-36566
OBJECT_ID      = 2026-014V
CENTER_NAME    = EARTH
REF_FRAME      = TEME
TIME_SYSTEM    = UTC
MEAN_ELEMENT_THEORY = SGP/SGP4

EPOCH          = 2026-02-07T06:00:02.999808
MEAN_MOTION    = 15.80830826
ECCENTRICITY   = .00025484
INCLINATION    = 97.2843
RA_OF_ASC_NODE = 281.6602
ARG_OF_PERICENTER = 60.7091
MEAN_ANOMALY   = 183.4711

EPHEMERIS_TYPE = 0
CLASSIFICATION_TYPE = U
NORAD_CAT_ID   = 67551
ELEMENT_SET_NO = 999
REV_AT_EPOCH   = 379
BSTAR          = -.14062034E-3
MEAN_MOTION_DOT = -.27018E-3
MEAN_MOTION_DDOT = 0

CCSDS_OMM_VERS = 2.0
CREATION_DATE  = 
ORIGINATOR     = 

OBJECT_NAME    = STARLINK-36567
OBJECT_ID      = 2026-014W
CENTER_NAME    = EARTH
REF_FRAME      = TEME
TIME_SYSTEM    = UTC
MEAN_ELEMENT_THEORY = SGP/SGP4

EPOCH          = 2026-02-07T06:00:02.999808
MEAN_MOTION    = 15.75219187
ECCENTRICITY   = .00018624
INCLINATION    = 97.2769
RA_OF_ASC_NODE = 281.6504
ARG_OF_PERICENTER = 112.3041
MEAN_ANOMALY   = 116.4981

EPHEMERIS_TYPE = 0
CLASSIFICATION_TYPE = U
NORAD_CAT_ID   = 67552
ELEMENT_SET_NO = 999
REV_AT_EPOCH   = 379
BSTAR          = -.36961425E-3
MEAN_MOTION_DOT = -.54979E-3
MEAN_MOTION_DDOT = 0

CCSDS_OMM_VERS = 2.0
CREATION_DATE  = 
ORIGINATOR     = 

OBJECT_NAME    = STARLINK-36569
OBJECT_ID      = 2026-014X
CENTER_NAME    = EARTH
REF_FRAME      = TEME
TIME_SYSTEM    = UTC
MEAN_ELEMENT_THEORY = SGP/SGP4

EPOCH          = 2026-02-07T06:00:02.999808
MEAN_MOTION    = 15.80825447
ECCENTRICITY   = .00010013
INCLINATION    = 97.2747
RA_OF_ASC_NODE = 281.6645
ARG_OF_PERICENTER = 88.0218
MEAN_ANOMALY   = 170.7100

EPHEMERIS_TYPE = 0
CLASSIFICATION_TYPE = U
NORAD_CAT_ID   = 67553
ELEMENT_SET_NO = 999
REV_AT_EPOCH   = 379
BSTAR          = .30785672E-4
MEAN_MOTION_DOT = .5762E-4
MEAN_MOTION_DDOT = 0

CCSDS_OMM_VERS = 2.0
CREATION_DATE  = 
ORIGINATOR     = 

OBJECT_NAME    = STARLINK-36395
OBJECT_ID      = 2026-014Y
CENTER_NAME    = EARTH
REF_FRAME      = TEME
TIME_SYSTEM    = UTC
MEAN_ELEMENT_THEORY = SGP/SGP4

EPOCH          = 2026-02-07T06:00:02.999808
MEAN_MOTION    = 15.75200510
ECCENTRICITY   = .00015858
INCLINATION    = 97.2769
RA_OF_ASC_NODE = 281.6646
ARG_OF_PERICENTER = 102.7617
MEAN_ANOMALY   = 158.0543

EPHEMERIS_TYPE = 0
CLASSIFICATION_TYPE = U
NORAD_CAT_ID   = 67554
ELEMENT_SET_NO = 999
REV_AT_EPOCH   = 379
BSTAR          = -.16999115E-3
MEAN_MOTION_DOT = -.25421E-3
MEAN_MOTION_DDOT = 0

CCSDS_OMM_VERS = 2.0
CREATION_DATE  = 
ORIGINATOR     = 

OBJECT_NAME    = STARLINK-36559
OBJECT_ID      = 2026-014Z
CENTER_NAME    = EARTH
REF_FRAME      = TEME
TIME_SYSTEM    = UTC
MEAN_ELEMENT_THEORY = SGP/SGP4

EPOCH          = 2026-02-07T06:00:02.999808
MEAN_MOTION    = 15.75210549
ECCENTRICITY   = .00018149
INCLINATION    = 97.2770
RA_OF_ASC_NODE = 281.6610
ARG_OF_PERICENTER = 90.4194
MEAN_ANOMALY   = 162.3894

EPHEMERIS_TYPE = 0
CLASSIFICATION_TYPE = U
NORAD_CAT_ID   = 67555
ELEMENT_SET_NO = 999
REV_AT_EPOCH   = 379
BSTAR          = -.30777924E-3
MEAN_MOTION_DOT = -.45834E-3
MEAN_MOTION_DDOT = 0

CCSDS_OMM_VERS = 2.0
CREATION_DATE  = 
ORIGINATOR     = 

OBJECT_NAME    = MR-1
OBJECT_ID      = 2026-015A
CENTER_NAME    = EARTH
REF_FRAME      = TEME
TIME_SYSTEM    = UTC
MEAN_ELEMENT_THEORY = SGP/SGP4

EPOCH          = 2026-02-07T03:54:14.595552
MEAN_MOTION    = 13.52686067
ECCENTRICITY   = .00051099
INCLINATION    = 88.9982
RA_OF_ASC_NODE = 281.7649
ARG_OF_PERICENTER = 93.2426
MEAN_ANOMALY   = 266.9311

EPHEMERIS_TYPE = 0
CLASSIFICATION_TYPE = U
NORAD_CAT_ID   = 67556
ELEMENT_SET_NO = 999
REV_AT_EPOCH   = 213
BSTAR          = .60864667E-4
MEAN_MOTION_DOT = .52E-6
MEAN_MOTION_DDOT = 0

CCSDS_OMM_VERS = 2.0
CREATION_DATE  = 
ORIGINATOR     = 

OBJECT_NAME    = MR-2
OBJECT_ID      = 2026-015B
CENTER_NAME    = EARTH
REF_FRAME      = TEME
TIME_SYSTEM    = UTC
MEAN_ELEMENT_THEORY = SGP/SGP4

EPOCH          = 2026-02-07T03:54:39.206592
MEAN_MOTION    = 13.52660908
ECCENTRICITY   = .00051615
INCLINATION    = 88.9981
RA_OF_ASC_NODE = 281.7650
ARG_OF_PERICENTER = 92.3685
MEAN_ANOMALY   = 267.8058

EPHEMERIS_TYPE = 0
CLASSIFICATION_TYPE = U
NORAD_CAT_ID   = 67557
ELEMENT_SET_NO = 999
REV_AT_EPOCH   = 213
BSTAR          = .33767566E-4
MEAN_MOTION_DOT = .34E-6
MEAN_MOTION_DDOT = 0

CCSDS_OMM_VERS = 2.0
CREATION_DATE  = 
ORIGINATOR     = 

OBJECT_NAME    = ELECTRON R/B
OBJECT_ID      = 2026-015C
CENTER_NAME    = EARTH
REF_FRAME      = TEME
TIME_SYSTEM    = UTC
MEAN_ELEMENT_THEORY = SGP/SGP4

EPOCH          = 2026-02-07T06:45:18.409248
MEAN_MOTION    = 15.15188571
ECCENTRICITY   = .05091448
INCLINATION    = 88.9999
RA_OF_ASC_NODE = 281.3103
ARG_OF_PERICENTER = 212.2253
MEAN_ANOMALY   = 144.6932

EPHEMERIS_TYPE = 0
CLASSIFICATION_TYPE = U
NORAD_CAT_ID   = 67558
ELEMENT_SET_NO = 999
REV_AT_EPOCH   = 237
BSTAR          = .14201108E-2
MEAN_MOTION_DOT = .1747217E-1
MEAN_MOTION_DDOT = -.806221E-6

CCSDS_OMM_VERS = 2.0
CREATION_DATE  = 
ORIGINATOR     = 

OBJECT_NAME    = ELECTRON KICK STAGE R/B
OBJECT_ID      = 2026-015D
CENTER_NAME    = EARTH
REF_FRAME      = TEME
TIME_SYSTEM    = UTC
MEAN_ELEMENT_THEORY = SGP/SGP4

EPOCH          = 2026-02-07T04:19:40.639872
MEAN_MOTION    = 14.67255021
ECCENTRICITY   = .05323531
INCLINATION    = 89.0509
RA_OF_ASC_NODE = 281.5050
ARG_OF_PERICENTER = 280.4608
MEAN_ANOMALY   = 73.7062

EPHEMERIS_TYPE = 0
CLASSIFICATION_TYPE = U
NORAD_CAT_ID   = 67559
ELEMENT_SET_NO = 999
REV_AT_EPOCH   = 231
BSTAR          = .11982821E-2
MEAN_MOTION_DOT = .70606E-3
MEAN_MOTION_DDOT = .336675E-6

