STARLINK-36586          
1 67548U 26014S   26038.25003472 -.00067415  00000+0 -35340-3 0  9997
2 67548  97.2852 281.6530 0001645  74.1625 150.3199 15.80847630  3790
STARLINK-36564          
1 67549U 26014T   26038.25003472 -.01971961  00000+0 -12275-1 0  9999
2 67549  97.2847 281.6558 0002193  97.5564 133.4099 15.80032834  3732
STARLINK-36563          
1 67550U 26014U   26038.25003472 -.00115305  00000+0 -60679-3 0  9995
2 67550  97.2824 281.6558 0001657 101.4144 136.5629 15.80901543  3793
STARLINK-36566          
1 67551U 26014V   26038.25003472 -.00027018  00000+0 -14062-3 0  9994
2 67551  97.2843 281.6602 0002548  60.7091 183.4711 15.80830826  3791
STARLINK-36567          
1 67552U 26014W   26038.25003472 -.00054979  00000+0 -36961-3 0  9993
2 67552  97.2769 281.6504 0001862 112.3041 116.4981 15.75219187  3797
STARLINK-36569          
1 67553U 26014X   26038.25003472  .00005762  00000+0  30786-4 0  9998
2 67553  97.2747 281.6645 0001001  88.0218 170.7100 15.80825447  3794
STARLINK-36395          
1 67554U 26014Y   26038.25003472 -.00025421  00000+0 -16999-3 0  9994
2 67554  97.2769 281.6646 0001585 102.7617 158.0543 15.75200510  3796
STARLINK-36559          
1 67555U 26014Z   26038.25003472 -.00045834  00000+0 -30778-3 0  9996
2 67555  97.2770 281.6610 0001814  90.4194 162.3894 15.75210549  3798
MR-1                    
1 67556U 26015A   26038.16266893  .00000052  00000+0  60865-4 0  9998
2 67556  88.9982 281.7649 0005109  93.2426 266.9311 13.52686067  2131
MR-2                    
1 67557U 26015B   26038.16295378  .00000034  00000+0  33768-4 0  9991
2 67557  88.9981 281.7650 0005161  92.3685 267.8058 13.52660908  2132
ELECTRON R/B            
1 67558U 26015C   26038.28146307  .01747217 -80622-6  14201-2 0  9999
2 67558  88.9999 281.3103 0509144 212.2253 144.6932 15.15188571  2376
ELECTRON KICK STAGE R/B 
1 67559U 26015D   26038.18033148  .00070606  33667-6  11983-2 0  9997
2 67559  89.0509 281.5050 0532353 280.4608  73.7062 14.67255021  2319
